NORAD_CAT_ID,OBJECT_NAME,OBJECT_TYPE,EPOCH,MEAN_MOTION,ECCENTRICITY,INCLINATION,RA_OF_ASC_NODE,ARG_OF_PERICENTER,MEAN_ANOMALY,BSTAR,MEAN_MOTION_DOT,MEAN_MOTION_DDOT,TLE_LINE0,TLE_LINE1,TLE_LINE2,SEMIMAJOR_AXIS,PERIOD,APOGEE,PERIGEE,DECAYED
49742.0,STARLINK-3202,PAYLOAD,2022-10-03 04:04:54,15.0885749,0.0002,53.2172,16.3916,38.9628,321.1508,0.0013208,0.00020805,0.0,0 STARLINK-3202,1 49742U 21115U   22276.17007379  .00020805  00000-0  13208-2 0  9990,2 49742  53.2172  16.3916 0002000  38.9628 321.1508 15.08857490 47404,6917.8269999999975,95.436,541.075,538.308,0.0
49742.0,STARLINK-3202,PAYLOAD,2022-10-03 12:01:49,15.08848468,0.0001921,53.2172,14.9051,38.8632,321.2498,0.0006239,9.658e-05,0.0,0 STARLINK-3202,1 49742U 21115U   22276.50127306  .00009658  00000-0  62390-3 0  9990,2 49742  53.2172  14.9051 0001921  38.8632 321.2498 15.08848468 47452,6917.855,95.437,541.048,538.391,0.0
49742.0,STARLINK-3202,PAYLOAD,2022-10-03 18:23:22,15.08864652,0.0001911999999999,53.2173,13.7151,37.6224,322.4902,0.00094694,0.00014825,0.0,0 STARLINK-3202,1 49742U 21115U   22276.76622826  .00014825  00000-0  94694-3 0  9999,2 49742  53.2173  13.7151 0001912  37.6224 322.4902 15.08864652 47495,6917.805,95.436,540.993,538.347,0.0
49742.0,STARLINK-3202,PAYLOAD,2022-10-04 13:27:59,15.08855685,0.0001899999999999,53.2172,10.147,41.8525,318.2612,0.00032489,4.889e-05,0.0,0 STARLINK-3202,1 49742U 21115U   22277.56110299  .00004889  00000-0  32489-3 0  9997,2 49742  53.2172  10.1470 0001900  41.8525 318.2612 15.08855685 46505,6917.831999999999,95.437,541.012,538.383,0.0
49742.0,STARLINK-3202,PAYLOAD,2022-10-04 15:03:22,15.08855578,0.0001931,53.2172,9.8497,39.8958,320.2176,0.00034722,5.245e-05,0.0,0 STARLINK-3202,1 49742U 21115U   22277.62734263  .00005245  00000-0  34722-3 0  9996,2 49742  53.2172   9.8497 0001931  39.8958 320.2176 15.08855578 46510,6917.833000000001,95.437,541.034,538.362,0.0
49742.0,STARLINK-3202,PAYLOAD,2022-10-05 05:21:51,15.08836736,0.0001993,53.2173,7.1737,40.4219,319.6921,-7.4809e-05,-1.479e-05,0.0,0 STARLINK-3202,1 49742U 21115U   22278.22350896 -.00001479  00000-0 -74809-4 0  9997,2 49742  53.2173   7.1737 0001993  40.4219 319.6921 15.08836736 47713,6917.89,95.438,541.134,538.377,0.0
49742.0,STARLINK-3202,PAYLOAD,2022-10-05 11:43:24,15.08835203,0.0001879,53.218,5.9842,40.8877,319.2256,-0.00010693,-1.989e-05,0.0,0 STARLINK-3202,1 49742U 21115U   22278.48847788 -.00001989  00000-0 -10693-3 0  9992,2 49742  53.2180   5.9842 0001879  40.8877 319.2256 15.08835203 47750,6917.895,95.438,541.06,538.46,0.0
49742.0,STARLINK-3202,PAYLOAD,2022-10-05 13:18:47,15.088377,0.0001805,53.218,5.6867,45.1345,314.9793,-7.4422e-05,-1.472e-05,0.0,0 STARLINK-3202,1 49742U 21115U   22278.55471531 -.00001472  00000-0 -74422-4 0  9997,2 49742  53.2180   5.6867 0001805  45.1345 314.9793 15.08837700 46651,6917.887,95.438,541.001,538.504,0.0
49742.0,STARLINK-3202,PAYLOAD,2022-10-06 02:01:52,15.08843949,0.0001919,53.218,3.3081,39.3795,320.7336,-3.1056e-05,-7.82e-06,0.0,0 STARLINK-3202,1 49742U 21115U   22279.08463106 -.00000782  00000-0 -31056-4 0  9994,2 49742  53.2180   3.3081 0001919  39.3795 320.7336 15.08843949 47846,6917.868,95.437,541.061,538.406,0.0
49742.0,STARLINK-3202,PAYLOAD,2022-10-06 11:34:11,15.08838816,0.0001940999999999,53.2179,1.524,40.4356,319.678,9.4253e-05,1.212e-05,0.0,0 STARLINK-3202,1 49742U 21115U   22279.48207371  .00001212  00000-0  94253-4 0  9993,2 49742  53.2179   1.5240 0001941  40.4356 319.6780 15.08838816 46792,6917.884,95.438,541.092,538.406,0.0
49742.0,STARLINK-3202,PAYLOAD,2022-10-07 05:03:25,15.08836987,0.0002041999999999,53.2172,358.2532,40.7148,319.3997,0.00017124,2.438e-05,0.0,0 STARLINK-3202,1 49742U 21115U   22280.21071639  .00002438  00000-0  17124-3 0  9994,2 49742  53.2172 358.2532 0002042  40.7148 319.3997 15.08836987 48017,6917.89,95.438,541.1669999999998,538.342,0.0
49742.0,STARLINK-3202,PAYLOAD,2022-10-07 11:24:57,15.08851619,0.0002088,53.2174,357.0639,37.5068,322.607,0.00036853,5.584e-05,0.0,0 STARLINK-3202,1 49742U 21115U   22280.47566834  .00005584  00000-0  36853-3 0  9993,2 49742  53.2174 357.0639 0002088  37.5068 322.6070 15.08851619 48051,6917.845,95.437,541.154,538.265,0.0
49742.0,STARLINK-3202,PAYLOAD,2022-10-07 13:00:20,15.08851986,0.0002076,53.2176,356.767,31.3528,328.7587,0.00032669,4.917e-05,0.0,0 STARLINK-3202,1 49742U 21115U   22280.54190783  .00004917  00000-0  32669-3 0  9997,2 49742  53.2176 356.7670 0002076  31.3528 328.7587 15.08851986 46958,6917.844,95.437,541.145,538.273,0.0
49742.0,STARLINK-3202,PAYLOAD,2022-10-08 04:54:12,15.08841715,0.0001871,53.2182,353.7931,37.8593,322.2531,5.11e-05,5.25e-06,0.0,0 STARLINK-3202,1 49742U 21115U   22281.20431227  .00000525  00000-0  51100-4 0  9995,2 49742  53.2182 353.7931 0001871  37.8593 322.2531 15.08841715 48169,6917.875,95.437,541.034,538.446,0.0
49742.0,STARLINK-3202,PAYLOAD,2022-10-08 11:15:46,15.08830455,0.0001984,53.2176,352.6031,40.2746,319.8393,3.2961e-05,2.36e-06,0.0,0 STARLINK-3202,1 49742U 21115U   22281.46928313  .00000236  00000-0  32961-4 0  9993,2 49742  53.2176 352.6031 0001984  40.2746 319.8393 15.08830455 47092,6917.91,95.438,541.1469999999998,538.4019999999998,0.0
49742.0,STARLINK-3202,PAYLOAD,2022-10-09 04:45:00,15.08841143,0.0002037,53.2167,349.332,39.9253,320.1889,2.4542e-05,1.02e-06,0.0,0 STARLINK-3202,1 49742U 21115U   22282.19791805  .00000102  00000-0  24542-4 0  9996,2 49742  53.2167 349.3320 0002037  39.9253 320.1889 15.08841143 48311,6917.877,95.437,541.151,538.3330000000002,0.0
49742.0,STARLINK-3202,PAYLOAD,2022-10-09 11:06:32,15.08848754,0.0002085,53.2167,348.1431,38.0207,322.0932,0.00031839,4.784e-05,0.0,0 STARLINK-3202,1 49742U 21115U   22282.46287647  .00004784  00000-0  31839-3 0  9996,2 49742  53.2167 348.1431 0002085  38.0207 322.0932 15.08848754 47249,6917.854,95.437,541.161,538.276,0.0
49742.0,STARLINK-3202,PAYLOAD,2022-10-10 04:35:47,15.0883689,0.000217,53.2166,344.8721,38.8898,321.225,0.00016142,2.282e-05,0.0,0 STARLINK-3202,1 49742U 21115U   22283.19152320  .00002282  00000-0  16142-3 0  9997,2 49742  53.2166 344.8721 0002170  38.8898 321.2250 15.08836890 48469,6917.89,95.438,541.256,538.254,0.0
49742.0,STARLINK-3202,PAYLOAD,2022-10-10 10:57:19,15.08842019,0.0002171,53.2167,343.6827,37.1867,322.9276,0.00019264,2.779e-05,0.0,0 STARLINK-3202,1 49742U 21115U   22283.45648045  .00002779  00000-0  19264-3 0  9999,2 49742  53.2167 343.6827 0002171  37.1867 322.9276 15.08842019 47390,6917.874,95.437,541.241,538.237,0.0
49742.0,STARLINK-3202,PAYLOAD,2022-10-11 10:48:07,15.08825544,0.0001954,53.2168,339.2213,38.7299,321.3833,-0.00013458,-2.429e-05,0.0,0 STARLINK-3202,1 49742U 21115U   22284.45009176 -.00002429  00000-0 -13458-3 0  9999,2 49742  53.2168 339.2213 0001954  38.7299 321.3833 15.08825544 48651,6917.925,95.438,541.141,538.438,0.0
49742.0,STARLINK-3202,PAYLOAD,2022-10-11 13:58:54,15.08818268,0.0002138,53.2163,338.6285,37.7422,322.372,-3.1362e-05,-7.87e-06,0.0,0 STARLINK-3202,1 49742U 21115U   22284.58257812 -.00000787  00000-0 -31362-4 0  9995,2 49742  53.2163 338.6285 0002138  37.7422 322.3720 15.08818268 47560,6917.946999999999,95.439,541.2909999999998,538.3330000000002,0.0
49742.0,STARLINK-3202,PAYLOAD,2022-10-12 12:14:19,15.08833286,0.0002217,53.2164,334.4644,39.22,320.8953,0.00039491,6.001e-05,0.0,0 STARLINK-3202,1 49742U 21115U   22285.50994343  .00006001  00000-0  39491-3 0  9998,2 49742  53.2164 334.4644 0002217  39.2200 320.8953 15.08833286 48810,6917.901,95.438,541.3,538.232,0.0
49742.0,STARLINK-3202,PAYLOAD,2022-10-12 13:49:42,15.0883448,0.000216,53.2164,334.1669,37.7196,322.3948,0.00070202,0.00010901,0.0,0 STARLINK-3202,1 49742U 21115U   22285.57618558  .00010901  00000-0  70202-3 0  9995,2 49742  53.2164 334.1669 0002160  37.7196 322.3948 15.08834480 47714,6917.897,95.438,541.257,538.268,0.0
49742.0,STARLINK-3202,PAYLOAD,2022-10-13 04:08:10,15.08865065,0.0002274,53.2161,331.491,40.2142,319.9018,0.0013469,0.00021228,0.0,0 STARLINK-3202,1 49742U 21115U   22286.17234187  .00021228  00000-0  13469-2 0  9999,2 49742  53.2161 331.4910 0002274  40.2142 319.9018 15.08865065 48912,6917.804,95.436,541.242,538.096,0.0
49742.0,STARLINK-3202,PAYLOAD,2022-10-13 12:05:05,15.08857371,0.0002183,53.2162,330.0047,41.8974,318.2185,0.00054085,8.334e-05,0.0,0 STARLINK-3202,1 49742U 21115U   22286.50353908  .00008334  00000-0  54085-3 0  9992,2 49742  53.2162 330.0047 0002183  41.8974 318.2185 15.08857371 47858,6917.8269999999975,95.436,541.202,538.182,0.0
49742.0,STARLINK-3202,PAYLOAD,2022-10-13 15:15:51,15.0885858,0.00022,53.2158,329.4097,41.5107,318.6052,0.00047531,7.288e-05,0.0,0 STARLINK-3202,1 49742U 21115U   22286.63601748  .00007288  00000-0  47531-3 0  9999,2 49742  53.2158 329.4097 0002200  41.5107 318.6052 15.08858580 48980,6917.824000000001,95.436,541.211,538.1669999999998,0.0
49742.0,STARLINK-3202,PAYLOAD,2022-10-13 20:02:01,15.0884969,0.0002233,53.2158,328.5169,40.9119,319.204,0.00014138,1.963e-05,0.0,0 STARLINK-3202,1 49742U 21115U   22286.83473872  .00001963  00000-0  14138-3 0  9997,2 49742  53.2158 328.5169 0002233  40.9119 319.2040 15.08849690 49013,6917.851,95.437,541.261,538.1709999999998,0.0
49742.0,STARLINK-3202,PAYLOAD,2022-10-14 10:20:29,15.08847237,0.0002045999999999,53.2158,325.8403,36.7286,323.3846,0.00010835,1.437e-05,0.0,0 STARLINK-3202,1 49742U 21115U   22287.43089638  .00001437  00000-0  10835-3 0  9993,2 49742  53.2158 325.8403 0002046  36.7286 323.3846 15.08847237 47994,6917.858,95.437,541.139,538.308,0.0
49742.0,STARLINK-3202,PAYLOAD,2022-10-14 19:52:48,15.08856066,0.0002061999999999,53.2158,324.0562,34.2663,325.8462,0.00046162,7.069e-05,0.0,0 STARLINK-3202,1 49742U 21115U   22287.82833352  .00007069  00000-0  46162-3 0  9995,2 49742  53.2158 324.0562 0002062  34.2663 325.8462 15.08856066 48050,6917.831,95.437,541.123,538.27,0.0
